1 27386U 02009A   10183.14374949  .00000011  00000-0  20060-4 0  2033
2 27386 098.5444 250.0313 0001126 096.7669 263.3665 14.32249073435883